{
"type": "FeatureCollection",
"name": "14-footprints",
"crs": { "type": "name", "properties": { "name": "urn:ogc:def:crs:EPSG::4548" } },
"features": [
{ "type": "Feature", "properties": { "parcel_id": "BLK-240x140-R", "land_use": "R", "building_type": "residential_tower", "floors": 12, "height_m": 36.0, "footprint_area_m2": 484.0, "orientation_deg": 0, "respects_setbacks": true }, "geometry": { "type": "Polygon", "coordinates": [ [ [ 31.430134113495399, 10.269616901286273 ], [ 31.430134113495399, 32.26961690128627 ], [ 9.430134113495399, 32.26961690128627 ], [ 9.430134113495399, 10.269616901286273 ], [ 31.430134113495399, 10.269616901286273 ] ] ] } },
{ "type": "Feature", "properties": { "parcel_id": "BLK-240x140-R", "land_use": "R", "building_type": "residential_slab", "floors": 6, "height_m": 18.0, "footprint_area_m2": 360.0, "orientation_deg": 0, "respects_setbacks": true }, "geometry": { "type": "Polygon", "coordinates": [ [ [ 71.541561437926305, 15.273465773900167 ], [ 71.541561437926305, 27.273465773900167 ], [ 41.541561437926305, 27.273465773900167 ], [ 41.541561437926305, 15.273465773900167 ], [ 71.541561437926305, 15.273465773900167 ] ] ] } },
{ "type": "Feature", "properties": { "parcel_id": "BLK-240x140-R", "land_use": "R", "building_type": "residential_slab", "floors": 6, "height_m": 18.0, "footprint_area_m2": 360.0, "orientation_deg": 0, "respects_setbacks": true }, "geometry": { "type": "Polygon", "coordinates": [ [ [ 143.455111717901133, 15.431677773570563 ], [ 143.455111717901133, 27.431677773570563 ], [ 113.455111717901133, 27.431677773570563 ], [ 113.455111717901133, 15.431677773570563 ], [ 143.455111717901133, 15.431677773570563 ] ] ] } },
{ "type": "Feature", "properties": { "parcel_id": "BLK-240x140-R", "land_use": "R", "building_type": "residential_slab", "floors": 6, "height_m": 18.0, "footprint_area_m2": 360.0, "orientation_deg": 0, "respects_setbacks": true }, "geometry": { "type": "Polygon", "coordinates": [ [ [ 179.37638530442149, 15.350458781347641 ], [ 179.37638530442149, 27.350458781347641 ], [ 149.37638530442149, 27.350458781347641 ], [ 149.37638530442149, 15.350458781347641 ], [ 179.37638530442149, 15.350458781347641 ] ] ] } },
{ "type": "Feature", "properties": { "parcel_id": "BLK-240x140-R", "land_use": "R", "building_type": "residential_slab_slim", "floors": 6, "height_m": 18.0, "footprint_area_m2": 264.0, "orientation_deg": 0, "respects_setbacks": true }, "geometry": { "type": "Polygon", "coordinates": [ [ [ 212.249484441302371, 15.524968504317137 ], [ 212.249484441302371, 26.524968504317137 ], [ 188.249484441302371, 26.524968504317137 ], [ 188.249484441302371, 15.524968504317137 ], [ 212.249484441302371, 15.524968504317137 ] ] ] } },
{ "type": "Feature", "properties": { "parcel_id": "BLK-240x140-R", "land_use": "R", "building_type": "residential_tower", "floors": 12, "height_m": 36.0, "footprint_area_m2": 484.0, "orientation_deg": 0, "respects_setbacks": true }, "geometry": { "type": "Polygon", "coordinates": [ [ [ 31.197916727399672, 38.086714513319627 ], [ 31.197916727399672, 60.086714513319627 ], [ 9.197916727399672, 60.086714513319627 ], [ 9.197916727399672, 38.086714513319627 ], [ 31.197916727399672, 38.086714513319627 ] ] ] } },
{ "type": "Feature", "properties": { "parcel_id": "BLK-240x140-R", "land_use": "R", "building_type": "residential_slab", "floors": 6, "height_m": 18.0, "footprint_area_m2": 360.0, "orientation_deg": 0, "respects_setbacks": true }, "geometry": { "type": "Polygon", "coordinates": [ [ [ 71.102355781122128, 43.555072071026075 ], [ 71.102355781122128, 55.555072071026075 ], [ 41.102355781122128, 55.555072071026075 ], [ 41.102355781122128, 43.555072071026075 ], [ 71.102355781122128, 43.555072071026075 ] ] ] } },
{ "type": "Feature", "properties": { "parcel_id": "BLK-240x140-R", "land_use": "R", "building_type": "residential_slab", "floors": 6, "height_m": 18.0, "footprint_area_m2": 360.0, "orientation_deg": 90, "respects_setbacks": true }, "geometry": { "type": "Polygon", "coordinates": [ [ [ 98.208121882720903, 34.354549294888848 ], [ 98.208121882720903, 64.354549294888841 ], [ 86.208121882720903, 64.354549294888841 ], [ 86.208121882720903, 34.354549294888848 ], [ 98.208121882720903, 34.354549294888848 ] ] ] } },
{ "type": "Feature", "properties": { "parcel_id": "BLK-240x140-R", "land_use": "R", "building_type": "residential_slab", "floors": 6, "height_m": 18.0, "footprint_area_m2": 360.0, "orientation_deg": 0, "respects_setbacks": true }, "geometry": { "type": "Polygon", "coordinates": [ [ [ 143.289382062165743, 43.46964113635017 ], [ 143.289382062165743, 55.46964113635017 ], [ 113.289382062165743, 55.46964113635017 ], [ 113.289382062165743, 43.46964113635017 ], [ 143.289382062165743, 43.46964113635017 ] ] ] } },
{ "type": "Feature", "properties": { "parcel_id": "BLK-240x140-R", "land_use": "R", "building_type": "residential_slab_slim", "floors": 6, "height_m": 18.0, "footprint_area_m2": 264.0, "orientation_deg": 0, "respects_setbacks": true }, "geometry": { "type": "Polygon", "coordinates": [ [ [ 176.291994998502901, 43.794424196612709 ], [ 176.291994998502901, 54.794424196612709 ], [ 152.291994998502901, 54.794424196612709 ], [ 152.291994998502901, 43.794424196612709 ], [ 176.291994998502901, 43.794424196612709 ] ] ] } },
{ "type": "Feature", "properties": { "parcel_id": "BLK-240x140-R", "land_use": "R", "building_type": "residential_tower", "floors": 12, "height_m": 36.0, "footprint_area_m2": 484.0, "orientation_deg": 0, "respects_setbacks": true }, "geometry": { "type": "Polygon", "coordinates": [ [ [ 211.284093640634183, 38.16018539785513 ], [ 211.284093640634183, 60.16018539785513 ], [ 189.284093640634183, 60.16018539785513 ], [ 189.284093640634183, 38.16018539785513 ], [ 211.284093640634183, 38.16018539785513 ] ] ] } },
{ "type": "Feature", "properties": { "parcel_id": "BLK-240x140-R", "land_use": "R", "building_type": "residential_slab", "floors": 6, "height_m": 18.0, "footprint_area_m2": 360.0, "orientation_deg": 0, "respects_setbacks": true }, "geometry": { "type": "Polygon", "coordinates": [ [ [ 35.312403441482928, 71.263346876183022 ], [ 35.312403441482928, 83.263346876183022 ], [ 5.312403441482925, 83.263346876183022 ], [ 5.312403441482925, 71.263346876183022 ], [ 35.312403441482928, 71.263346876183022 ] ] ] } },
{ "type": "Feature", "properties": { "parcel_id": "BLK-240x140-R", "land_use": "R", "building_type": "residential_slab", "floors": 6, "height_m": 18.0, "footprint_area_m2": 360.0, "orientation_deg": 0, "respects_setbacks": true }, "geometry": { "type": "Polygon", "coordinates": [ [ [ 71.537696463103856, 71.084149453399164 ], [ 71.537696463103856, 83.084149453399164 ], [ 41.537696463103856, 83.084149453399164 ], [ 41.537696463103856, 71.084149453399164 ], [ 71.537696463103856, 71.084149453399164 ] ] ] } },
{ "type": "Feature", "properties": { "parcel_id": "BLK-240x140-R", "land_use": "R", "building_type": "residential_slab", "floors": 6, "height_m": 18.0, "footprint_area_m2": 360.0, "orientation_deg": 0, "respects_setbacks": true }, "geometry": { "type": "Polygon", "coordinates": [ [ [ 107.065145444681264, 71.403344055823879 ], [ 107.065145444681264, 83.403344055823879 ], [ 77.065145444681264, 83.403344055823879 ], [ 77.065145444681264, 71.403344055823879 ], [ 107.065145444681264, 71.403344055823879 ] ] ] } },
{ "type": "Feature", "properties": { "parcel_id": "BLK-240x140-R", "land_use": "R", "building_type": "residential_slab", "floors": 6, "height_m": 18.0, "footprint_area_m2": 360.0, "orientation_deg": 0, "respects_setbacks": true }, "geometry": { "type": "Polygon", "coordinates": [ [ [ 143.436196768572131, 71.461188495150594 ], [ 143.436196768572131, 83.461188495150594 ], [ 113.436196768572131, 83.461188495150594 ], [ 113.436196768572131, 71.461188495150594 ], [ 143.436196768572131, 71.461188495150594 ] ] ] } },
{ "type": "Feature", "properties": { "parcel_id": "BLK-240x140-R", "land_use": "R", "building_type": "residential_slab", "floors": 6, "height_m": 18.0, "footprint_area_m2": 360.0, "orientation_deg": 0, "respects_setbacks": true }, "geometry": { "type": "Polygon", "coordinates": [ [ [ 179.549607107082579, 71.13812839453692 ], [ 179.549607107082579, 83.13812839453692 ], [ 149.549607107082579, 83.13812839453692 ], [ 149.549607107082579, 71.13812839453692 ], [ 179.549607107082579, 71.13812839453692 ] ] ] } },
{ "type": "Feature", "properties": { "parcel_id": "BLK-240x140-R", "land_use": "R", "building_type": "residential_slab", "floors": 6, "height_m": 18.0, "footprint_area_m2": 360.0, "orientation_deg": 0, "respects_setbacks": true }, "geometry": { "type": "Polygon", "coordinates": [ [ [ 215.222553370317485, 71.49787384587944 ], [ 215.222553370317485, 83.49787384587944 ], [ 185.222553370317485, 83.49787384587944 ], [ 185.222553370317485, 71.49787384587944 ], [ 215.222553370317485, 71.49787384587944 ] ] ] } },
{ "type": "Feature", "properties": { "parcel_id": "BLK-240x140-R", "land_use": "R", "building_type": "residential_slab_slim", "floors": 6, "height_m": 18.0, "footprint_area_m2": 264.0, "orientation_deg": 0, "respects_setbacks": true }, "geometry": { "type": "Polygon", "coordinates": [ [ [ 32.190283335693628, 100.07173963704183 ], [ 32.190283335693628, 111.07173963704183 ], [ 8.190283335693628, 111.07173963704183 ], [ 8.190283335693628, 100.07173963704183 ], [ 32.190283335693628, 100.07173963704183 ] ] ] } },
{ "type": "Feature", "properties": { "parcel_id": "BLK-240x140-R", "land_use": "R", "building_type": "residential_slab", "floors": 6, "height_m": 18.0, "footprint_area_m2": 360.0, "orientation_deg": 0, "respects_setbacks": true }, "geometry": { "type": "Polygon", "coordinates": [ [ [ 71.153579054340554, 99.561626142029354 ], [ 71.153579054340554, 111.561626142029354 ], [ 41.153579054340561, 111.561626142029354 ], [ 41.153579054340561, 99.561626142029354 ], [ 71.153579054340554, 99.561626142029354 ] ] ] } },
{ "type": "Feature", "properties": { "parcel_id": "BLK-240x140-R", "land_use": "R", "building_type": "residential_tower", "floors": 12, "height_m": 36.0, "footprint_area_m2": 484.0, "orientation_deg": 90, "respects_setbacks": true }, "geometry": { "type": "Polygon", "coordinates": [ [ [ 103.02694637163539, 94.261058236001801 ], [ 103.02694637163539, 116.261058236001801 ], [ 81.02694637163539, 116.261058236001801 ], [ 81.02694637163539, 94.261058236001801 ], [ 103.02694637163539, 94.261058236001801 ] ] ] } },
{ "type": "Feature", "properties": { "parcel_id": "BLK-240x140-R", "land_use": "R", "building_type": "residential_tower", "floors": 12, "height_m": 36.0, "footprint_area_m2": 484.0, "orientation_deg": 90, "respects_setbacks": true }, "geometry": { "type": "Polygon", "coordinates": [ [ [ 139.449164811674194, 94.534475494527101 ], [ 139.449164811674194, 116.534475494527101 ], [ 117.449164811674194, 116.534475494527101 ], [ 117.449164811674194, 94.534475494527101 ], [ 139.449164811674194, 94.534475494527101 ] ] ] } },
{ "type": "Feature", "properties": { "parcel_id": "BLK-240x140-R", "land_use": "R", "building_type": "residential_slab", "floors": 6, "height_m": 18.0, "footprint_area_m2": 360.0, "orientation_deg": 0, "respects_setbacks": true }, "geometry": { "type": "Polygon", "coordinates": [ [ [ 179.311315016231873, 99.189557431098464 ], [ 179.311315016231873, 111.189557431098464 ], [ 149.311315016231873, 111.189557431098464 ], [ 149.311315016231873, 99.189557431098464 ], [ 179.311315016231873, 99.189557431098464 ] ] ] } },
{ "type": "Feature", "properties": { "parcel_id": "BLK-240x140-R", "land_use": "R", "building_type": "residential_tower", "floors": 12, "height_m": 36.0, "footprint_area_m2": 484.0, "orientation_deg": 0, "respects_setbacks": true }, "geometry": { "type": "Polygon", "coordinates": [ [ [ 211.224194637324246, 94.056680000836892 ], [ 211.224194637324246, 116.056680000836892 ], [ 189.224194637324246, 116.056680000836892 ], [ 189.224194637324246, 94.056680000836892 ], [ 211.224194637324246, 94.056680000836892 ] ] ] } }
]
}
