{"type": "FeatureCollection", "features": [{"type": "Feature", "properties": {"name": "\u5317\u533a", "category": "residential", "far": 2.5, "planned": 12000.0}, "geometry": {"type": "Polygon", "coordinates": [[[0.0, 0.0], [500.0, 0.0], [500.0, 300.0], [0.0, 300.0], [0.0, 0.0]]]}}, {"type": "Feature", "properties": {"name": "\u4e1c\u533a", "category": "residential", "far": 2.0, "planned": 6000.0}, "geometry": {"type": "Polygon", "coordinates": [[[600.0, 0.0], [1000.0, 0.0], [1000.0, 300.0], [600.0, 300.0], [600.0, 0.0]]]}}, {"type": "Feature", "properties": {"name": "\u897f\u533a", "category": "residential", "far": 1.8, "planned": 5000.0}, "geometry": {"type": "Polygon", "coordinates": [[[0.0, 400.0], [500.0, 400.0], [500.0, 600.0], [0.0, 600.0], [0.0, 400.0]]]}}, {"type": "Feature", "properties": {"name": "\u5357\u533a", "category": "residential", "far": 1.1, "planned": 2500.0}, "geometry": {"type": "Polygon", "coordinates": [[[600.0, 400.0], [1000.0, 400.0], [1000.0, 600.0], [600.0, 600.0], [600.0, 400.0]]]}}, {"type": "Feature", "properties": {"name": "education_junior", "category": "facilities"}, "geometry": {"type": "Polygon", "coordinates": [[[0.0, 900.0], [200.0, 900.0], [200.0, 1020.0], [0.0, 1020.0], [0.0, 900.0]]]}}, {"type": "Feature", "properties": {"name": "education_primary", "category": "facilities"}, "geometry": {"type": "Polygon", "coordinates": [[[220.0, 900.0], [620.0, 900.0], [620.0, 1010.0], [220.0, 1010.0], [220.0, 900.0]]]}}, {"type": "Feature", "properties": {"name": "education_kindergarten", "category": "facilities"}, "geometry": {"type": "Polygon", "coordinates": [[[640.0, 900.0], [790.0, 900.0], [790.0, 1010.0], [640.0, 1010.0], [640.0, 900.0]]]}}, {"type": "Feature", "properties": {"name": "health", "category": "facilities"}, "geometry": {"type": "Polygon", "coordinates": [[[810.0, 900.0], [870.0, 900.0], [870.0, 930.0], [810.0, 930.0], [810.0, 900.0]]]}}, {"type": "Feature", "properties": {"name": "elderly", "category": "facilities"}, "geometry": {"type": "Polygon", "coordinates": [[[890.0, 900.0], [1000.0, 900.0], [1000.0, 930.0], [890.0, 930.0], [890.0, 900.0]]]}}, {"type": "Feature", "properties": {"name": "culture", "category": "facilities"}, "geometry": {"type": "Polygon", "coordinates": [[[1020.0, 900.0], [1100.0, 900.0], [1100.0, 940.0], [1020.0, 940.0], [1020.0, 900.0]]]}}, {"type": "Feature", "properties": {"name": "sports", "category": "facilities"}, "geometry": {"type": "Polygon", "coordinates": [[[1120.0, 900.0], [1340.0, 900.0], [1340.0, 925.0], [1120.0, 925.0], [1120.0, 900.0]]]}}, {"type": "Feature", "properties": {"name": "commercial", "category": "facilities"}, "geometry": {"type": "Polygon", "coordinates": [[[1360.0, 900.0], [1620.0, 900.0], [1620.0, 950.0], [1360.0, 950.0], [1360.0, 900.0]]]}}, {"type": "Feature", "properties": {"name": "community", "category": "facilities"}, "geometry": {"type": "Polygon", "coordinates": [[[1640.0, 900.0], [1740.0, 900.0], [1740.0, 960.0], [1640.0, 960.0], [1640.0, 900.0]]]}}, {"type": "Feature", "properties": {"name": "\u7eff\u5730", "category": "green"}, "geometry": {"type": "Polygon", "coordinates": [[[0.0, 1100.0], [560.0, 1100.0], [560.0, 1600.0], [0.0, 1600.0], [0.0, 1100.0]]]}}, {"type": "Feature", "properties": {"name": "\u9053\u8def", "category": "roads"}, "geometry": {"type": "Polygon", "coordinates": [[[0.0, 1650.0], [950.0, 1650.0], [950.0, 1750.0], [0.0, 1750.0], [0.0, 1650.0]]]}}]}